SITRO-AIS 26            
1 59067U 24039S   26124.21466782  .00005575  00000+0  43560-3 0  9998
2 59067  95.3919 204.7883 0147681 122.0227 239.5445 14.92991374118157
SITRO-AIS 27            
1 59068U 24039T   26124.19710208  .00005424  00000+0  42016-3 0  9999
2 59068  95.3926 205.0276 0146826 120.7693 240.8084 14.93402107118176
SITRO-AIS 28            
1 59071U 24039U   26124.17556819  .00006634  00000+0  51267-3 0  9999
2 59071  95.3927 205.0577 0146909 120.6894 240.8904 14.93436619118175
GRBBETA                 
1 60237U 24128C   26124.14609291  .00003866  00000+0  27034-3 0  9993
2 60237  61.9917  10.7420 0046219 125.4724 235.0695 15.06282662 99639
OOV-CUBE (TUBSAT-30)    
1 60240U 24128F   26124.20288889  .00002321  00000+0  18495-3 0  9996
2 60240  61.9967  18.9184 0049758 124.1135 236.4691 15.02553068 99502
ROBUSTA-3A (MEDITERRAN*)
1 60243U 24128J   26124.20296103  .00007903  00000+0  47149-3 0  9996
2 60243  61.9879   3.7062 0046903 119.4922 241.0863 15.10994615 99772
LASARSAT                
1 62391U 24247Q   26124.13786993  .00030539  00000+0  66672-3 0  9990
2 62391  44.9718 149.2109 0004751  46.9495 313.1792 15.43710732 76503
CROCUBE                 
1 62394U 24247T   26124.11942970  .00033416  00000+0  69168-3 0  9990
2 62394  44.9707 147.2927 0004379  47.4386 312.6872 15.45241434 76526
FORESAIL-1 PRIME        
1 66778U 25276DS  26123.71367304  .00005112  00000+0  25257-3 0  9993
2 66778  97.4211 197.8094 0000935 236.0479 124.0666 15.18295185 23652
KNACKSAT-2              
1 67683U 98067XZ  26123.38551293  .00042137  00000+0  59112-3 0  9997
2 67683  51.6273 159.1481 0012715  31.7607 328.4149 15.56224547 13292
