
    {
        "ARG_OF_PERICENTER": 122.0227,
        "BSTAR": 0.0004356,
        "CLASSIFICATION_TYPE": "U",
        "ECCENTRICITY": 0.0147681,
        "ELEMENT_SET_NO": 999,
        "EPHEMERIS_TYPE": 0,
        "EPOCH": "2026-05-04T05:09:07.299648",
        "INCLINATION": 95.3919,
        "MEAN_ANOMALY": 239.5445,
        "MEAN_MOTION": 14.92991374,
        "MEAN_MOTION_DDOT": 0,
        "MEAN_MOTION_DOT": 5.575e-05,
        "NORAD_CAT_ID": 59067,
        "OBJECT_ID": "2024-039S",
        "OBJECT_NAME": "SITRO-AIS 26",
        "RA_OF_ASC_NODE": 204.7883,
        "REV_AT_EPOCH": 11815
    },
    {
        "ARG_OF_PERICENTER": 120.7693,
        "BSTAR": 0.00042016,
        "CLASSIFICATION_TYPE": "U",
        "ECCENTRICITY": 0.0146826,
        "ELEMENT_SET_NO": 999,
        "EPHEMERIS_TYPE": 0,
        "EPOCH": "2026-05-04T04:43:49.619712",
        "INCLINATION": 95.3926,
        "MEAN_ANOMALY": 240.8084,
        "MEAN_MOTION": 14.93402107,
        "MEAN_MOTION_DDOT": 0,
        "MEAN_MOTION_DOT": 5.424e-05,
        "NORAD_CAT_ID": 59068,
        "OBJECT_ID": "2024-039T",
        "OBJECT_NAME": "SITRO-AIS 27",
        "RA_OF_ASC_NODE": 205.0276,
        "REV_AT_EPOCH": 11817
    },
    {
        "ARG_OF_PERICENTER": 120.6894,
        "BSTAR": 0.00051267,
        "CLASSIFICATION_TYPE": "U",
        "ECCENTRICITY": 0.0146909,
        "ELEMENT_SET_NO": 999,
        "EPHEMERIS_TYPE": 0,
        "EPOCH": "2026-05-04T04:12:49.091616",
        "INCLINATION": 95.3927,
        "MEAN_ANOMALY": 240.8904,
        "MEAN_MOTION": 14.93436619,
        "MEAN_MOTION_DDOT": 0,
        "MEAN_MOTION_DOT": 6.634e-05,
        "NORAD_CAT_ID": 59071,
        "OBJECT_ID": "2024-039U",
        "OBJECT_NAME": "SITRO-AIS 28",
        "RA_OF_ASC_NODE": 205.0577,
        "REV_AT_EPOCH": 11817
    },
    {
        "ARG_OF_PERICENTER": 125.4724,
        "BSTAR": 0.00027034,
        "CLASSIFICATION_TYPE": "U",
        "ECCENTRICITY": 0.0046219,
        "ELEMENT_SET_NO": 999,
        "EPHEMERIS_TYPE": 0,
        "EPOCH": "2026-05-04T03:30:22.427424",
        "INCLINATION": 61.9917,
        "MEAN_ANOMALY": 235.0695,
        "MEAN_MOTION": 15.06282662,
        "MEAN_MOTION_DDOT": 0,
        "MEAN_MOTION_DOT": 3.866e-05,
        "NORAD_CAT_ID": 60237,
        "OBJECT_ID": "2024-128C",
        "OBJECT_NAME": "GRBBETA",
        "RA_OF_ASC_NODE": 10.742,
        "REV_AT_EPOCH": 9963
    },
    {
        "ARG_OF_PERICENTER": 124.1135,
        "BSTAR": 0.00018495,
        "CLASSIFICATION_TYPE": "U",
        "ECCENTRICITY": 0.0049758,
        "ELEMENT_SET_NO": 999,
        "EPHEMERIS_TYPE": 0,
        "EPOCH": "2026-05-04T04:52:09.600096",
        "INCLINATION": 61.9967,
        "MEAN_ANOMALY": 236.4691,
        "MEAN_MOTION": 15.02553068,
        "MEAN_MOTION_DDOT": 0,
        "MEAN_MOTION_DOT": 2.321e-05,
        "NORAD_CAT_ID": 60240,
        "OBJECT_ID": "2024-128F",
        "OBJECT_NAME": "OOV-CUBE (TUBSAT-30)",
        "RA_OF_ASC_NODE": 18.9184,
        "REV_AT_EPOCH": 9950
    },
    {
        "ARG_OF_PERICENTER": 119.4922,
        "BSTAR": 0.00047149,
        "CLASSIFICATION_TYPE": "U",
        "ECCENTRICITY": 0.0046903,
        "ELEMENT_SET_NO": 999,
        "EPHEMERIS_TYPE": 0,
        "EPOCH": "2026-05-04T04:52:15.832992",
        "INCLINATION": 61.9879,
        "MEAN_ANOMALY": 241.0863,
        "MEAN_MOTION": 15.10994615,
        "MEAN_MOTION_DDOT": 0,
        "MEAN_MOTION_DOT": 7.903e-05,
        "NORAD_CAT_ID": 60243,
        "OBJECT_ID": "2024-128J",
        "OBJECT_NAME": "ROBUSTA-3A (MEDITERRANEE)",
        "RA_OF_ASC_NODE": 3.7062,
        "REV_AT_EPOCH": 9977
    },
    {
        "ARG_OF_PERICENTER": 46.9495,
        "BSTAR": 0.00066672,
        "CLASSIFICATION_TYPE": "U",
        "ECCENTRICITY": 0.0004751,
        "ELEMENT_SET_NO": 999,
        "EPHEMERIS_TYPE": 0,
        "EPOCH": "2026-05-04T03:18:31.961952",
        "INCLINATION": 44.9718,
        "MEAN_ANOMALY": 313.1792,
        "MEAN_MOTION": 15.43710732,
        "MEAN_MOTION_DDOT": 0,
        "MEAN_MOTION_DOT": 0.00030539,
        "NORAD_CAT_ID": 62391,
        "OBJECT_ID": "2024-247Q",
        "OBJECT_NAME": "LASARSAT",
        "RA_OF_ASC_NODE": 149.2109,
        "REV_AT_EPOCH": 7650
    },
    {
        "ARG_OF_PERICENTER": 47.4386,
        "BSTAR": 0.00069168,
        "CLASSIFICATION_TYPE": "U",
        "ECCENTRICITY": 0.0004379,
        "ELEMENT_SET_NO": 999,
        "EPHEMERIS_TYPE": 0,
        "EPOCH": "2026-05-04T02:51:58.726080",
        "INCLINATION": 44.9707,
        "MEAN_ANOMALY": 312.6872,
        "MEAN_MOTION": 15.45241434,
        "MEAN_MOTION_DDOT": 0,
        "MEAN_MOTION_DOT": 0.00033416,
        "NORAD_CAT_ID": 62394,
        "OBJECT_ID": "2024-247T",
        "OBJECT_NAME": "CROCUBE",
        "RA_OF_ASC_NODE": 147.2927,
        "REV_AT_EPOCH": 7652
    },
    {
        "ARG_OF_PERICENTER": 236.0479,
        "BSTAR": 0.00025256626,
        "CLASSIFICATION_TYPE": "U",
        "ECCENTRICITY": 9.358e-05,
        "ELEMENT_SET_NO": 999,
        "EPHEMERIS_TYPE": 0,
        "EPOCH": "2026-05-03T17:07:41.350656",
        "INCLINATION": 97.4211,
        "MEAN_ANOMALY": 124.0666,
        "MEAN_MOTION": 15.18295185,
        "MEAN_MOTION_DDOT": 0,
        "MEAN_MOTION_DOT": 5.112e-05,
        "NORAD_CAT_ID": 66778,
        "OBJECT_ID": "2025-276DS",
        "OBJECT_NAME": "FORESAIL-1 PRIME",
        "RA_OF_ASC_NODE": 197.8094,
        "REV_AT_EPOCH": 2365
    },
    {
        "ARG_OF_PERICENTER": 31.7607,
        "BSTAR": 0.0005911245,
        "CLASSIFICATION_TYPE": "U",
        "ECCENTRICITY": 0.00127158,
        "ELEMENT_SET_NO": 999,
        "EPHEMERIS_TYPE": 0,
        "EPOCH": "2026-05-03T09:15:08.317152",
        "INCLINATION": 51.6273,
        "MEAN_ANOMALY": 328.4149,
        "MEAN_MOTION": 15.56224547,
        "MEAN_MOTION_DDOT": 0,
        "MEAN_MOTION_DOT": 0.00042137,
        "NORAD_CAT_ID": 67683,
        "OBJECT_ID": "1998-067XZ",
        "OBJECT_NAME": "KNACKSAT-2",
        "RA_OF_ASC_NODE": 159.1481,
        "REV_AT_EPOCH": 1329
    }